ORBCOMM FM33            
1 25983U 99065D   24196.36146097  .00002254  00000+0  78579-3 0  9995
2 25983  45.0270 162.7464 0006810 168.1462 191.9548 14.37937363287404
ORBCOMM FM36            
1 25984U 99065E   24196.84368498  .00001654  00000+0  61427-3 0  9997
2 25984  45.0388 247.0736 0002455 355.8047   4.2780 14.35861102285899
ORBCOMM FM35            
1 25985U 99065F   24196.83700006  .00001205  00000+0  46525-3 0  9996
2 25985  45.0392 249.9845 0003036 191.3860 168.6920 14.35365847286289
ORBCOMM FM34            
1 25986U 99065G   24196.87832583  .00001236  00000+0  47624-3 0  9992
2 25986  45.0386 250.3361 0001341 105.6620 254.4376 14.35343106286442
ORBCOMM FM38            
1 33060U 08031A   24196.88270628  .00003713  00000+0  53798-3 0  9995
2 33060  48.4401 118.9818 0005417  32.3338 327.7908 14.77959717864797
ORBCOMM FM41            
1 33061U 08031B   24196.88640771  .00003860  00000+0  56172-3 0  9998
2 33061  48.4434 125.7406 0004679  17.3173  54.6150 14.77684196864298
ORBCOMM FM29            
1 33062U 08031C   24196.87446652  .00003974  00000+0  57808-3 0  9993
2 33062  48.4385 133.8322 0006568  15.7123  40.6716 14.77630925864202
ORBCOMM FM39            
1 33063U 08031D   24196.87486768  .00003325  00000+0  50045-3 0  9992
2 33063  48.4395 154.8555 0007707 350.6237   9.4532 14.76574664863897
